OBJECT_NAME,OBJECT_ID,EPOCH,MEAN_MOTION,ECCENTRICITY,INCLINATION,RA_OF_ASC_NODE,ARG_OF_PERICENTER,MEAN_ANOMALY,EPHEMERIS_TYPE,CLASSIFICATION_TYPE,NORAD_CAT_ID,ELEMENT_SET_NO,REV_AT_EPOCH,BSTAR,MEAN_MOTION_DOT,MEAN_MOTION_DDOT
IRIDIUM 138,2017-083B,2026-07-15T20:26:35.037888,14.34218786,.0002056,86.3999,309.7332,92.1620,267.9812,0,U,43071,999,44824,.41325E-4,.136E-5,0
IRIDIUM 116,2017-083C,2026-07-15T19:40:55.073568,14.34217958,.00024607,86.3986,310.0322,98.2597,261.8878,0,U,43072,999,44827,.41009103E-4,.135E-5,0
IRIDIUM 130,2017-083D,2026-07-15T20:35:43.397952,14.34218104,.0002271,86.3993,310.2943,100.5072,259.6380,0,U,43073,999,44822,.41435E-4,.136E-5,0
IRIDIUM 151,2017-083E,2026-07-15T19:59:11.208768,14.34218240,.00022477,86.3986,310.0853,95.1346,265.0107,0,U,43074,999,44824,.3868696E-4,.128E-5,0
IRIDIUM 134,2017-083F,2026-07-15T20:53:59.197056,14.34218032,.0002221,86.3989,310.0778,94.9825,265.1625,0,U,43075,999,44821,.18566E-4,.72E-6,0
IRIDIUM 137,2017-083G,2026-07-15T19:31:47.278560,14.34218184,.00027086,86.3992,310.1952,93.4974,266.6531,0,U,43076,999,44827,.22774048E-4,.84E-6,0
IRIDIUM 141,2017-083H,2026-07-16T05:25:27.151680,14.34217843,.0002177,86.3985,309.8518,93.0738,267.0707,0,U,43077,999,44833,.22762E-4,.84E-6,0
IRIDIUM 153,2017-083J,2026-07-16T04:16:35.394816,14.34217915,.0002119,86.3958,278.3508,94.6638,265.4800,0,U,43078,999,44943,.16983E-4,.67E-6,0
IRIDIUM 131,2017-083K,2026-07-15T20:44:51.154080,14.34218505,.0002233,86.3990,310.1907,93.6435,266.5016,0,U,43079,999,44821,.32458E-4,.111E-5,0
IRIDIUM 144,2018-030A,2026-07-16T04:25:43.411008,14.34218048,.0002394,86.3956,278.2766,96.4820,263.6648,0,U,43249,999,43429,.18E-4,.7E-6,0
IRIDIUM 149,2018-030B,2026-07-16T04:34:51.422016,14.34218163,.0002262,86.3955,278.2406,93.1099,267.0356,0,U,43250,999,43431,.27369E-4,.96E-6,0
IRIDIUM 157,2018-030C,2026-07-16T05:02:15.614016,14.34218268,.0002261,86.3959,278.2867,94.1530,265.9924,0,U,43251,999,43429,.42309E-4,.138E-5,0
IRIDIUM 140,2018-030D,2026-07-16T05:29:39.648768,14.34217906,.0002245,86.3958,278.2912,95.6747,264.4705,0,U,43252,999,43435,.44472E-4,.144E-5,0
IRIDIUM 145,2018-030E,2026-07-15T07:25:19.393536,14.34217461,.00025431,86.3957,278.6477,100.4482,259.7000,0,U,43253,999,43415,.33886785E-4,.115E-5,0
IRIDIUM 146,2018-030F,2026-07-16T04:43:59.439072,14.34217619,.0002387,86.3958,278.2888,96.2850,263.8618,0,U,43254,999,43429,.16622E-4,.66E-6,0
IRIDIUM 148,2018-030G,2026-07-16T03:58:19.674336,14.34218248,.000234,86.3959,278.3454,93.2581,266.8882,0,U,43255,999,43432,.43622E-4,.142E-5,0
IRIDIUM 142,2018-030H,2026-07-15T18:50:19.462272,14.34218049,.00024455,86.3954,278.3925,96.7055,263.4419,0,U,43256,999,43423,.23364873E-4,.85E-6,0
IRIDIUM 150,2018-030J,2026-07-15T04:40:55.306848,14.34216004,.00021691,86.3956,278.7566,95.4767,264.6676,0,U,43257,999,43417,-.71752641E-4,-.181E-5,0
IRIDIUM 143,2018-030K,2026-07-16T05:20:31.534080,14.34217700,.0002328,86.3962,278.4207,96.6241,263.5220,0,U,43258,999,43425,.22734E-4,.83E-6,0
IRIDIUM 161,2018-047C,2026-07-16T03:34:57.874080,14.43276000,.0002246,86.4461,76.3591,80.8661,279.2793,0,U,43478,999,42931,.4137E-4,.159E-5,0
IRIDIUM 152,2018-047D,2026-07-16T03:00:46.321632,14.34218417,.0002155,86.3934,76.2302,83.5113,276.6328,0,U,43479,999,42663,.16245E-4,.65E-6,0
IRIDIUM 147,2018-047E,2026-07-16T03:09:54.261792,14.34217378,.000227,86.3937,76.2334,88.7004,271.4452,0,U,43480,999,42663,.20614E-4,.78E-6,0
IRIDIUM 110,2018-047F,2026-07-16T03:19:02.131104,14.34218871,.0002089,86.3939,76.3233,77.2386,282.9043,0,U,43481,999,42662,.46501E-4,.15E-5,0
IRIDIUM 162,2018-047G,2026-07-16T03:25:53.840928,14.43278775,.0002194,86.4458,76.2523,87.0234,273.1218,0,U,43482,999,42930,.48239E-4,.182E-5,0
IRIDIUM 160,2018-061A,2026-07-16T02:01:02.427168,14.34217316,.0002228,86.3940,44.7098,86.8692,273.2759,0,U,43569,999,41751,.40555E-4,.133E-5,0
IRIDIUM 166,2018-061B,2026-07-16T02:37:34.499712,14.34217746,.0002278,86.3938,44.6494,89.7065,270.4391,0,U,43570,999,41754,.11121E-4,.51E-6,0
IRIDIUM 158,2018-061C,2026-07-16T01:51:54.440352,14.34217912,.0002086,86.3939,44.6723,88.3727,271.7708,0,U,43571,999,41750,.18224E-4,.71E-6,0
IRIDIUM 165,2018-061D,2026-07-16T02:28:26.565600,14.34217160,.0002285,86.3940,44.7086,90.7910,269.3548,0,U,43572,999,41753,.49603E-5,.34E-6,0
IRIDIUM 155,2018-061E,2026-07-16T01:33:38.452896,14.34217738,.0002103,86.3936,44.5925,89.7267,270.4170,0,U,43573,999,41749,.21763E-4,.81E-6,0
IRIDIUM 154,2018-061F,2026-07-16T02:46:42.456288,14.34217533,.0002304,86.3940,44.7063,90.5499,269.5960,0,U,43574,999,41755,.12753E-4,.55E-6,0
IRIDIUM 163,2018-061G,2026-07-16T02:19:18.507072,14.34217262,.0002104,86.3936,44.6285,86.1039,274.0397,0,U,43575,999,41752,.35099E-5,.3E-6,0
